STARLINK-1559           
1 46077U 20055BC  26068.23360559  .00042685  00000+0  14779-2 0  9995
2 46077  53.0254  76.0659 0004229  33.9710 326.1559 15.29461733309518
STARLINK-33583          
1 63503U 25071L   26068.50347913  .00022209  00000+0  75995-3 0  9998
2 63503  53.1580 143.4639 0001132  92.0349 268.0781 15.30189691 52715
