[{"OBJECT_NAME":"STARLINK-1559","OBJECT_ID":"2020-055BC","EPOCH":"2026-03-09T05:36:23.522976","MEAN_MOTION":15.29461733,"ECCENTRICITY":0.0004229,"INCLINATION":53.0254,"RA_OF_ASC_NODE":76.0659,"ARG_OF_PERICENTER":33.971,"MEAN_ANOMALY":326.1559,"EPHEMERIS_TYPE":0,"CLASSIFICATION_TYPE":"U","NORAD_CAT_ID":46077,"ELEMENT_SET_NO":999,"REV_AT_EPOCH":30951,"BSTAR":0.0014778793,"MEAN_MOTION_DOT":0.00042685,"MEAN_MOTION_DDOT":0},{"OBJECT_NAME":"STARLINK-33583","OBJECT_ID":"2025-071L","EPOCH":"2026-03-09T12:05:00.596832","MEAN_MOTION":15.30189691,"ECCENTRICITY":0.00011327,"INCLINATION":53.158,"RA_OF_ASC_NODE":143.4639,"ARG_OF_PERICENTER":92.0349,"MEAN_ANOMALY":268.0781,"EPHEMERIS_TYPE":0,"CLASSIFICATION_TYPE":"U","NORAD_CAT_ID":63503,"ELEMENT_SET_NO":999,"REV_AT_EPOCH":5271,"BSTAR":0.00075995104,"MEAN_MOTION_DOT":0.00022209,"MEAN_MOTION_DDOT":0}]
